NORAD_CAT_ID,OBJECT_NAME,OBJECT_TYPE,EPOCH,MEAN_MOTION,ECCENTRICITY,INCLINATION,RA_OF_ASC_NODE,ARG_OF_PERICENTER,MEAN_ANOMALY,BSTAR,MEAN_MOTION_DOT,MEAN_MOTION_DDOT,TLE_LINE0,TLE_LINE1,TLE_LINE2,SEMIMAJOR_AXIS,PERIOD,APOGEE,PERIGEE,DECAYED
52588.0,STARLINK-3917,PAYLOAD,2023-01-31 11:41:08,15.0883605,0.0001232,53.2157,166.2762,87.7168,272.3965,9.2662e-05,1.187e-05,0.0,0 STARLINK-3917,1 52588U 22051BE  23031.48690278  .00001187  00000-0  92662-4 0  9997,2 52588  53.2157 166.2762 0001232  87.7168 272.3965 15.08836050 40585,6917.892,95.438,540.61,538.905,0.0
52588.0,STARLINK-3917,PAYLOAD,2023-02-01 01:59:36,15.08844065,0.0001215,53.2158,163.5993,85.044,275.0691,8.0023e-05,9.86e-06,0.0,0 STARLINK-3917,1 52588U 22051BE  23032.08305772  .00000986  00000-0  80023-4 0  9990,2 52588  53.2158 163.5993 0001215  85.0440 275.0691 15.08844065 40678,6917.868,95.437,540.573,538.892,0.0
52588.0,STARLINK-3917,PAYLOAD,2023-02-01 13:07:18,15.08840619,0.000124,53.2158,161.5175,86.5159,273.5975,9.7538e-05,1.265e-05,0.0,0 STARLINK-3917,1 52588U 22051BE  23032.54673892  .00001265  00000-0  97538-4 0  9992,2 52588  53.2158 161.5175 0001240  86.5159 273.5975 15.08840619 40678,6917.878,95.438,540.601,538.886,0.0
52588.0,STARLINK-3917,PAYLOAD,2023-02-02 12:58:04,15.08893158,0.0001125,53.2143,157.0587,77.2732,282.8386,-0.00078539,-0.00012784,0.0,0 STARLINK-3917,1 52588U 22051BE  23033.54033415 -.00012784  00000-0 -78539-3 0  9993,2 52588  53.2143 157.0587 0001125  77.2732 282.8386 15.08893158 40827,6917.718,95.434,540.361,538.805,0.0
52588.0,STARLINK-3917,PAYLOAD,2023-02-02 16:08:52,15.0882509,0.0001514,53.2143,156.4638,84.3947,275.7217,0.00011652,1.566e-05,0.0,0 STARLINK-3917,1 52588U 22051BE  23033.67282832  .00001566  00000-0  11652-3 0  9993,2 52588  53.2143 156.4638 0001514  84.3947 275.7217 15.08825090 40910,6917.926,95.438,540.838,538.744,0.0
52588.0,STARLINK-3917,PAYLOAD,2023-02-03 17:35:02,15.08836974,0.0001381,53.2145,151.704,99.3435,260.7714,2.2566e-05,7.1e-07,0.0,0 STARLINK-3917,1 52588U 22051BE  23034.73266365  .00000071  00000-0  22566-4 0  9991,2 52588  53.2145 151.7040 0001381  99.3435 260.7714 15.08836974 41074,6917.89,95.438,540.71,538.799,0.0
52588.0,STARLINK-3917,PAYLOAD,2023-02-04 14:15:02,15.08844067,0.0001129,53.2158,147.838,98.8203,261.2917,9.9525e-05,1.297e-05,0.0,0 STARLINK-3917,1 52588U 22051BE  23035.59377719  .00001297  00000-0  99525-4 0  9992,2 52588  53.2158 147.8380 0001129  98.8203 261.2917 15.08844067 41206,6917.868,95.437,540.514,538.952,0.0
52588.0,STARLINK-3917,PAYLOAD,2023-02-04 19:01:11,15.08852454,0.000107,53.2163,146.9453,106.4946,253.6163,0.00015501,2.181e-05,0.0,0 STARLINK-3917,1 52588U 22051BE  23035.79248894  .00002181  00000-0  15501-3 0  9999,2 52588  53.2163 146.9453 0001070 106.4946 253.6163 15.08852454 41238,6917.842,95.437,540.448,538.967,0.0
52588.0,STARLINK-3917,PAYLOAD,2023-02-04 23:47:22,15.08833484,0.0001811,53.2172,146.0523,82.0762,278.0435,2.5781e-05,1.22e-06,0.0,0 STARLINK-3917,1 52588U 22051BE  23035.99122794  .00000122  00000-0  25781-4 0  9996,2 52588  53.2172 146.0523 0001811  82.0762 278.0435 15.08833484 41263,6917.9,95.438,541.018,538.512,0.0
52588.0,STARLINK-3917,PAYLOAD,2023-02-05 12:30:27,15.08830743,0.0001332,53.2154,143.6763,89.788,270.3264,-4.2413e-05,-9.63e-06,0.0,0 STARLINK-3917,1 52588U 22051BE  23036.52115353 -.00000963  00000-0 -42413-4 0  9995,2 52588  53.2154 143.6763 0001332  89.7880 270.3264 15.08830743 41276,6917.909,95.438,540.695,538.852,0.0
52588.0,STARLINK-3917,PAYLOAD,2023-02-05 15:41:13,15.08837396,0.0001261,53.2173,143.0824,92.9322,267.1814,3.5706e-05,2.8e-06,0.0,0 STARLINK-3917,1 52588U 22051BE  23036.65362668  .00000280  00000-0  35706-4 0  9999,2 52588  53.2173 143.0824 0001261  92.9322 267.1814 15.08837396 41295,6917.888,95.438,540.626,538.881,0.0
52588.0,STARLINK-3917,PAYLOAD,2023-02-06 10:45:50,15.08844855,0.000111,53.2165,139.5141,105.7322,254.3793,2.5013e-05,1.1e-06,0.0,0 STARLINK-3917,1 52588U 22051BE  23037.44850435  .00000110  00000-0  25013-4 0  9993,2 52588  53.2165 139.5141 0001110 105.7322 254.3793 15.08844855 41487,6917.866,95.437,540.498,538.963,0.0
52588.0,STARLINK-3917,PAYLOAD,2023-02-06 12:21:13,15.08847408,0.0001226,53.2155,139.2163,106.7152,253.3974,6.1362e-05,6.89e-06,0.0,0 STARLINK-3917,1 52588U 22051BE  23037.51474189  .00000689  00000-0  61362-4 0  9997,2 52588  53.2155 139.2163 0001226 106.7152 253.3974 15.08847408 41428,6917.858,95.437,540.571,538.875,0.0
52588.0,STARLINK-3917,PAYLOAD,2023-02-06 15:31:59,15.08853737,0.0001343,53.2156,138.6216,111.2937,248.8199,0.0001021,1.338e-05,0.0,0 STARLINK-3917,1 52588U 22051BE  23037.64721639  .00001338  00000-0  10210-3 0  9993,2 52588  53.2156 138.6216 0001343 111.2937 248.8199 15.08853737 41513,6917.838,95.437,540.632,538.774,0.0
52588.0,STARLINK-3917,PAYLOAD,2023-02-07 13:47:23,15.08848338,0.0001462,53.216,134.4563,66.8984,293.2162,0.00013024,1.786e-05,0.0,0 STARLINK-3917,1 52588U 22051BE  23038.57458007  .00001786  00000-0  13024-3 0  9995,2 52588  53.2160 134.4563 0001462  66.8984 293.2162 15.08848338 41656,6917.855,95.437,540.731,538.709,0.0
52588.0,STARLINK-3917,PAYLOAD,2023-02-07 18:33:31,15.08862061,0.0001376,53.2172,133.5617,90.8209,269.2941,0.0002422,3.571e-05,0.0,0 STARLINK-3917,1 52588U 22051BE  23038.77328635  .00003571  00000-0  24220-3 0  9994,2 52588  53.2172 133.5617 0001376  90.8209 269.2941 15.08862061 41613,6917.813,95.436,540.63,538.726,0.0
52588.0,STARLINK-3917,PAYLOAD,2023-02-07 23:19:40,15.08865038,0.0001041,53.2164,132.6713,89.4923,270.6189,0.00028137,4.196e-05,0.0,0 STARLINK-3917,1 52588U 22051BE  23038.97200134  .00004196  00000-0  28137-3 0  9994,2 52588  53.2164 132.6713 0001041  89.4923 270.6189 15.08865038 41715,6917.804,95.436,540.389,538.949,0.0
52588.0,STARLINK-3917,PAYLOAD,2023-02-08 13:38:10,15.08847481,0.0001386,53.216,129.9997,104.3193,255.7953,2.704e-05,1.43e-06,0.0,0 STARLINK-3917,1 52588U 22051BE  23039.56817944  .00000143  00000-0  27040-4 0  9994,2 52588  53.2160 129.9997 0001386 104.3193 255.7953 15.08847481 41807,6917.858,95.437,540.681,538.764,0.0
52588.0,STARLINK-3917,PAYLOAD,2023-02-08 15:13:33,15.08853096,0.0001159,53.2148,129.7007,103.2465,256.8657,9.1912e-05,1.176e-05,0.0,0 STARLINK-3917,1 52588U 22051BE  23039.63441528  .00001176  00000-0  91912-4 0  9999,2 52588  53.2148 129.7007 0001159 103.2465 256.8657 15.08853096 41746,6917.84,95.437,540.507,538.904,0.0
52588.0,STARLINK-3917,PAYLOAD,2023-02-08 23:10:30,15.088368,0.0001728,53.2166,128.2138,83.2187,276.9002,-5.9607e-06,-3.83e-06,0.0,0 STARLINK-3917,1 52588U 22051BE  23039.96562651 -.00000383  00000-0 -59607-5 0  9993,2 52588  53.2166 128.2138 0001728  83.2187 276.9002 15.08836800 41869,6917.89,95.438,540.951,538.56,0.0
52588.0,STARLINK-3917,PAYLOAD,2023-02-09 10:18:11,15.0885184,0.0001346,53.2145,126.1339,78.3431,281.7712,4.8856e-05,4.9e-06,0.0,0 STARLINK-3917,1 52588U 22051BE  23040.42930065  .00000490  00000-0  48856-4 0  9994,2 52588  53.2145 126.1339 0001346  78.3431 281.7712 15.08851840 41862,6917.844,95.437,540.64,538.778,0.0
52588.0,STARLINK-3917,PAYLOAD,2023-02-09 15:04:19,15.08870159,0.0001036,53.2159,125.2364,110.5251,249.5853,0.00029235,4.372e-05,0.0,0 STARLINK-3917,1 52588U 22051BE  23040.62800276  .00004372  00000-0  29235-3 0  9998,2 52588  53.2159 125.2364 0001036 110.5251 249.5853 15.08870159 41963,6917.788,95.436,540.37,538.937,0.0
52588.0,STARLINK-3917,PAYLOAD,2023-02-09 23:01:16,15.08839829,0.0001461,53.2163,123.7522,87.0285,273.0875,-0.00014084,-2.529e-05,0.0,0 STARLINK-3917,1 52588U 22051BE  23040.95921969 -.00002529  00000-0 -14084-3 0  9997,2 52588  53.2163 123.7522 0001461  87.0285 273.0875 15.08839829 42016,6917.881,95.438,540.757,538.735,0.0
52588.0,STARLINK-3917,PAYLOAD,2023-02-10 14:55:07,15.08853716,0.0001192,53.2146,120.7786,102.3963,257.7162,0.00020954,3.05e-05,0.0,0 STARLINK-3917,1 52588U 22051BE  23041.62161756  .00003050  00000-0  20954-3 0  9993,2 52588  53.2146 120.7786 0001192 102.3963 257.7162 15.08853716 42111,6917.838,95.437,540.528,538.879,0.0
52588.0,STARLINK-3917,PAYLOAD,2023-02-10 16:30:30,15.08854692,0.0001174,53.2145,120.4811,100.5826,259.5298,0.00023924,3.523e-05,0.0,0 STARLINK-3917,1 52588U 22051BE  23041.68785696  .00003523  00000-0  23924-3 0  9999,2 52588  53.2145 120.4811 0001174 100.5826 259.5298 15.08854692 42051,6917.835,95.437,540.513,538.888,0.0
52588.0,STARLINK-3917,PAYLOAD,2023-02-11 13:10:32,15.08845431,0.0001016,53.2141,116.6145,110.5401,249.57,0.00020068,2.908e-05,0.0,0 STARLINK-3917,1 52588U 22051BE  23042.54898664  .00002908  00000-0  20068-3 0  9997,2 52588  53.2141 116.6145 0001016 110.5401 249.5700 15.08845431 42259,6917.864,95.437,540.432,539.026,0.0
52588.0,STARLINK-3917,PAYLOAD,2023-02-11 16:21:18,15.08856117,7.55e-05,53.2142,116.0199,99.478,260.6297,0.00045368,6.943e-05,0.0,0 STARLINK-3917,1 52588U 22051BE  23042.68146297  .00006943  00000-0  45368-3 0  9993,2 52588  53.2142 116.0199 0000755  99.4780 260.6297 15.08856117 42200,6917.831,95.437,540.218,539.174,0.0
52588.0,STARLINK-3917,PAYLOAD,2023-02-12 06:39:48,15.08823859,8.56e-05,53.2142,113.345,100.7792,259.3296,6.6906e-06,-1.81e-06,0.0,0 STARLINK-3917,1 52588U 22051BE  23043.27764002 -.00000181  00000-0  66906-5 0  9991,2 52588  53.2142 113.3450 0000856 100.7792 259.3296 15.08823859 42369,6917.93,95.439,540.387,539.203,0.0
52588.0,STARLINK-3917,PAYLOAD,2023-02-12 13:01:19,15.08855292,9.44e-05,53.2143,112.1551,109.7133,250.3961,0.000763,0.00011881,0.0,0 STARLINK-3917,1 52588U 22051BE  23043.54259102  .00011881  00000-0  76300-3 0  9996,2 52588  53.2143 112.1551 0000944 109.7133 250.3961 15.08855292 42338,6917.834,95.437,540.352,539.046,0.0
52588.0,STARLINK-3917,PAYLOAD,2023-02-12 14:36:43,15.08861097,8.08e-05,53.2143,111.8571,113.271,246.8367,0.0016587,0.00026224,0.0,0 STARLINK-3917,1 52588U 22051BE  23043.60883516  .00026224  00000-0  16587-2 0  9992,2 52588  53.2143 111.8571 0000808 113.2710 246.8367 15.08861097 42415,6917.816,95.436,540.24,539.122,0.0
